MEAN_MOTION;ECCENTRICITY;INCLINATION;RA_OF_ASC_NODE;ARG_OF_PERICENTER;MEAN_ANOMALY;BSTAR;MEAN_MOTION_DOT;MEAN_MOTION_DDOT;TYPE
14.91859066;0.0089294;98.1058;211.8763;233.6219;125.6737;3.2063E-6;-3.4E-7;0;Weather
14.91859084;0.0089297;98.1058;211.9453;233.3988;125.8991;3.4089E-6;-3.2E-7;0;Weather
14.91859489;0.0089346;98.106;212.9111;230.2735;129.0584;9.0401E-6;2.9E-7;0;Weather
14.91859539;0.0089347;98.1061;212.9802;230.043;129.2916;9.9415E-6;3.9E-7;0;Weather
14.91860125;0.0089403;98.1063;213.946;226.923;132.4481;2.1434E-5;1.65E-6;0;Weather
14.91860168;0.0089406;98.1063;214.015;226.7003;132.6735;2.2398E-5;1.75E-6;0;Weather
14.91860517;0.0089437;98.1063;214.4978;225.1439;134.249;2.917E-5;2.49E-6;0;Weather
14.91860849;0.0089464;98.1064;214.9118;223.8052;135.6046;3.5304E-5;3.16E-6;0;Weather
14.91861082;0.0089484;98.1064;215.2567;222.6939;136.7303;3.9233E-5;3.59E-6;0;Weather
14.91861279;0.0089503;98.1065;215.5326;221.8063;137.6295;4.191E-5;3.88E-6;0;Weather
14.91862058;0.0089563;98.1066;216.4295;218.9156;140.5593;5.0069E-5;4.77E-6;0;Weather
14.9186251;0.0089603;98.1066;216.9813;217.1287;142.3713;5.1656E-5;4.95E-6;0;Weather
14.91862886;0.0089647;98.1067;217.5332;215.3474;144.1781;5.1216E-5;4.9E-6;0;Weather
14.9186327;0.0089677;98.1068;218.0852;213.5729;145.9787;4.8768E-5;4.63E-6;0;Weather
14.91863744;0.0089714;98.1068;218.5681;212.0236;147.5512;4.81E-5;4.56E-6;0;Weather
14.91864155;0.0089756;98.1069;219.12;210.2526;149.3493;4.3645E-5;4.08E-6;0;Weather
14.91864444;0.008982;98.1071;220.017;207.3669;152.2803;2.9344E-5;2.52E-6;0;Weather
14.91864587;0.0089827;98.1072;220.155;206.9225;152.7318;2.8769E-5;2.45E-6;0;Weather
14.91865119;0.0089888;98.1073;221.0518;204.0363;155.6648;1.9489E-5;1.44E-6;0;Weather
14.91865204;0.0089891;98.1073;221.1208;203.8136;155.8911;1.9449E-5;1.44E-6;0;Weather
14.91865935;0.0089952;98.1075;222.0868;200.7027;159.0539;1.5454E-5;1.0E-6;0;Weather
14.91865957;0.0089967;98.1076;222.2248;200.2535;159.5106;1.395E-5;8.4E-7;0;Weather
14.91866253;0.0090037;98.1077;223.1217;197.3711;162.4421;9.3013E-6;3.3E-7;0;Weather
14.91866224;0.0090043;98.1077;223.1907;197.1509;162.6662;8.5778E-6;2.5E-7;0;Weather
14.91866531;0.0090084;98.1079;223.7427;195.381;164.4667;1.0551E-5;4.7E-7;0;Weather
14.9186674;0.0090115;98.108;224.1567;194.0498;165.8211;1.2331E-5;6.6E-7;0;Weather
14.91866666;0.0090121;98.108;224.2257;193.8283;166.0465;1.1308E-5;5.5E-7;0;Weather
14.91866873;0.0090157;98.108;224.7086;192.2892;167.6127;1.4693E-5;9.2E-7;0;Weather
14.91867241;0.0090187;98.1081;225.1916;190.7418;169.1876;2.0817E-5;1.59E-6;0;Weather
14.91867235;0.0090197;98.1082;225.2607;190.5148;169.4186;2.1017E-5;1.61E-6;0;Weather
14.91867436;0.0090228;98.1082;225.7436;188.9805;170.9803;2.5626E-5;2.12E-6;0;Weather
14.91867702;0.0090275;98.1083;226.2955;187.2137;172.7788;3.1534E-5;2.76E-6;0;Weather
14.91868226;0.0090361;98.1084;227.2616;184.1307;175.9176;4.1001E-5;3.8E-6;0;Weather
14.91868299;0.0090365;98.1084;227.3306;183.9107;176.1416;4.2068E-5;3.92E-6;0;Weather
14.91869028;0.0090439;98.1085;228.2966;180.8294;179.2789;4.9021E-5;4.68E-6;0;Weather
14.91869065;0.0090444;98.1085;228.3656;180.6123;179.4999;4.9168E-5;4.69E-6;0;Weather
14.91869847;0.0090498;98.1087;229.3316;177.5296;182.6388;5.0447E-5;4.84E-6;0;Weather
14.91869876;0.0090501;98.1087;229.4006;177.3122;182.8601;5.0033E-5;4.79E-6;0;Weather
14.9187032;0.009056;98.1089;230.4356;174.0098;186.2225;4.0301E-5;3.73E-6;0;Weather
14.91870946;0.0090587;98.109;230.9186;172.4715;187.7887;4.0824E-5;3.78E-6;0;Weather
14.91871308;0.0090631;98.1091;231.4707;170.709;189.5832;3.5214E-5;3.17E-6;0;Weather
14.91871729;0.0090657;98.1091;231.9537;169.173;191.1468;3.196E-5;2.82E-6;0;Weather
14.91872151;0.00907;98.1093;232.5058;167.4049;192.9466;2.6799E-5;2.25E-6;0;Weather
14.91872401;0.0090731;98.1094;232.9198;166.0877;194.2872;2.3044E-5;1.84E-6;0;Weather
14.91872669;0.0090769;98.1095;233.4028;164.5462;195.8561;1.7975E-5;1.29E-6;0;Weather
14.91872786;0.009078;98.1095;233.5409;164.1053;196.3047;1.7472E-5;1.23E-6;0;Weather
14.91873136;0.0090821;98.1097;234.0929;162.3507;198.0901;1.4606E-5;9.2E-7;0;Weather
14.91873302;0.0090845;98.1098;234.438;161.2527;199.2073;1.2302E-5;6.7E-7;0;Weather
14.91873274;0.009085;98.1098;234.507;161.0337;199.4302;1.1284E-5;5.6E-7;0;Weather
14.91873809;0.009093;98.11;235.4731;157.9617;202.555;1.0897E-5;5.2E-7;0;Weather
14.91873847;0.0090935;98.11;235.5421;157.744;202.7764;1.1111E-5;5.4E-7;0;Weather
14.9187446;0.0091024;98.1103;236.5773;154.4612;206.1145;1.7422E-5;1.23E-6;0;Weather
14.9187529;0.009109;98.1104;237.5434;151.407;209.2187;3.0184E-5;2.63E-6;0;Weather
14.91875408;0.0091094;98.1105;237.6124;151.189;209.4402;3.2059E-5;2.83E-6;0;Weather
14.91876312;0.0091146;98.1106;238.5786;148.1353;212.5424;4.475E-5;4.22E-6;0;Weather
14.91876402;0.0091149;98.1106;238.6476;147.9169;212.7643;4.6013E-5;4.36E-6;0;Weather
14.9187749;0.0091206;98.1108;239.683;144.6496;216.0815;5.6426E-5;5.5E-6;0;Weather
14.9187749;0.0091206;98.1108;239.683;144.6496;216.0815;5.6426E-5;5.5E-6;0;Weather
14.91878482;0.0091248;98.1109;240.7183;141.3838;219.3953;5.8522E-5;5.74E-6;0;Weather
14.91878482;0.0091248;98.1109;240.7183;141.3838;219.3953;5.8522E-5;5.74E-6;0;Weather
14.91879287;0.0091294;98.1111;241.7536;138.1097;222.7154;5.2092E-5;5.03E-6;0;Weather
14.91879287;0.0091294;98.1111;241.7536;138.1097;222.7154;5.2092E-5;5.03E-6;0;Weather
14.91880036;0.0091355;98.1113;242.7889;134.8287;226.0402;4.1175E-5;3.84E-6;0;Weather
14.91880111;0.0091354;98.1113;242.8579;134.6046;226.2672;4.0787E-5;3.79E-6;0;Weather
14.9188077;0.0091409;98.1114;243.8241;131.5464;229.364;2.9156E-5;2.52E-6;0;Weather
14.91880987;0.0091433;98.1115;244.3073;130.0198;230.9089;2.2336E-5;1.77E-6;0;Weather
14.91881314;0.0091468;98.1116;244.8595;128.2732;232.6759;1.6411E-5;1.13E-6;0;Weather
14.91881971;0.0091526;98.1118;245.8259;125.2286;235.7542;1.0784E-5;5.1E-7;0;Weather
14.91882227;0.0091539;98.1119;246.378;123.487;237.5139;8.6393E-6;2.8E-7;0;Weather
14.9188241;0.0091563;98.112;246.7922;122.1802;238.8337;7.7817E-6;1.8E-7;0;Weather
14.91882686;0.0091578;98.1121;247.4134;120.2273;240.8051;8.9155E-6;3.1E-7;0;Weather
14.91882948;0.00916;98.1123;247.8966;118.7044;242.3418;1.1704E-5;6.1E-7;0;Weather
14.91883248;0.009161;98.1124;248.4488;116.9678;244.0932;1.6265E-5;1.11E-6;0;Weather
14.91883472;0.0091629;98.1125;248.932;115.448;245.6254;2.0448E-5;1.57E-6;0;Weather
14.91883801;0.0091649;98.1126;249.4843;113.7083;247.3784;2.6187E-5;2.2E-6;0;Weather
14.91884007;0.0091658;98.1127;249.9676;112.1893;248.9082;3.0216E-5;2.64E-6;0;Weather
14.91884365;0.0091669;98.1128;250.5198;110.4516;250.6573;3.5321E-5;3.2E-6;0;Weather
14.91884643;0.0091673;98.1129;251.003;108.9342;252.184;3.8396E-5;3.54E-6;0;Weather
14.91884935;0.0091672;98.113;251.4863;107.4152;253.7114;4.0506E-5;3.77E-6;0;Weather
14.91885206;0.0091674;98.1131;251.9695;105.8977;255.2368;4.1007E-5;3.82E-6;0;Weather
14.91885235;0.0091672;98.1131;252.0386;105.6808;255.4546;4.0933E-5;3.82E-6;0;Weather
14.91885745;0.0091671;98.1132;252.5218;104.1589;256.9835;4.3491E-5;4.1E-6;0;Weather
14.91886065;0.0091678;98.1133;253.3502;101.5496;259.6032;3.8245E-5;3.52E-6;0;Weather
14.9188617;0.0091684;98.1134;253.5574;100.8989;260.2562;3.6738E-5;3.36E-6;0;Weather
14.91886452;0.0091684;98.1135;254.1097;99.1621;261.9983;3.266E-5;2.91E-6;0;Weather
14.91886682;0.0091689;98.1135;254.6619;97.4252;263.7395;2.7681E-5;2.36E-6;0;Weather
14.91886907;0.009169;98.1136;255.1452;95.9025;265.2653;2.3234E-5;1.88E-6;0;Weather
14.91887178;0.0091697;98.1137;255.6975;94.158;267.0124;1.892E-5;1.4E-6;0;Weather
14.91887408;0.0091704;98.1138;256.1807;92.6345;268.5374;1.5086E-5;9.8E-7;0;Weather
14.91887674;0.0091708;98.1139;256.733;90.8987;270.274;1.2009E-5;6.5E-7;0;Weather
14.9188782;0.0091708;98.1139;257.1473;89.5949;271.5777;9.2244E-6;3.4E-7;0;Weather
14.91888129;0.0091711;98.1141;258.1829;86.3378;274.8322;5.4544E-6;-7.0E-8;0;Weather
14.91888433;0.0091703;98.1143;259.1495;83.2984;277.866;7.1595E-6;1.1E-7;0;Weather
14.91888448;0.0091701;98.1143;259.2185;83.0813;278.0826;7.3886E-6;1.4E-7;0;Weather
14.91888821;0.0091677;98.1145;260.1851;80.0412;281.1137;1.4211E-5;8.9E-7;0;Weather
14.91888842;0.0091675;98.1145;260.2542;79.8238;281.3304;1.4725E-5;9.4E-7;0;Weather
14.9188916;0.0091672;98.1146;260.7375;78.2995;282.8491;2.0333E-5;1.56E-6;0;Weather
14.91889284;0.0091658;98.1147;261.2208;76.7799;284.3624;2.3353E-5;1.89E-6;0;Weather
14.91889266;0.0091655;98.1147;261.2898;76.5624;284.5789;2.3397E-5;1.89E-6;0;Weather
14.91889435;0.0091637;98.1148;261.7732;75.0384;286.0956;2.6286E-5;2.21E-6;0;Weather
14.91889678;0.0091623;98.1149;262.2565;73.5177;287.6084;2.9452E-5;2.56E-6;0;Weather
14.91889699;0.009162;98.1149;262.3255;73.3001;287.8248;2.9701E-5;2.58E-6;0;Weather
14.91890042;0.0091589;98.115;262.8779;71.5623;289.5525;3.2576E-5;2.9E-6;0;Weather
14.9189031;0.0091572;98.1151;263.2922;70.2588;290.8478;3.4031E-5;3.06E-6;0;Weather
14.91890345;0.009157;98.1151;263.3613;70.0411;291.0642;3.4092E-5;3.06E-6;0;Weather
14.91890722;0.0091532;98.1153;264.328;66.9885;294.0955;3.0315E-5;2.65E-6;0;Weather
14.9189074;0.0091528;98.1153;264.397;66.7694;294.3129;2.9915E-5;2.6E-6;0;Weather
14.91891241;0.0091491;98.1155;265.4328;63.4969;297.5595;2.4769E-5;2.04E-6;0;Weather
14.91891272;0.0091493;98.1154;265.5018;63.2748;297.7798;2.4382E-5;2.0E-6;0;Weather
14.91891705;0.009146;98.1156;266.4685;60.2296;300.798;1.7929E-5;1.29E-6;0;Weather
14.91891754;0.0091461;98.1156;266.5375;60.0161;301.0096;1.7773E-5;1.27E-6;0;Weather
14.91892141;0.0091428;98.1158;267.5733;56.751;304.2428;1.0805E-5;5.1E-7;0;Weather
14.91892344;0.0091402;98.1159;268.0566;55.2311;305.7468;8.5966E-6;2.7E-7;0;Weather
14.9189255;0.0091379;98.116;268.6091;53.4904;307.4687;6.6533E-6;5.0E-8;0;Weather
14.91892835;0.0091329;98.1162;269.5069;50.6583;310.2683;4.8552E-6;-1.4E-7;0;Weather
14.91893042;0.0091297;98.1163;270.0593;48.9109;311.9948;5.8229E-6;-4.0E-8;0;Weather
14.91893604;0.0091286;98.1165;270.5428;47.3924;313.4947;1.2825E-5;7.3E-7;0;Weather
14.91894035;0.0091252;98.1166;271.0952;45.6479;315.2169;1.8294E-5;1.33E-6;0;Weather
